{
  "norad_id": 66846,
  "name": "STARLINK-36055",
  "history": [
    {
      "epoch": "2026-03-28T22:05:40.658208Z",
      "apogee_km": 573.3878624583031,
      "perigee_km": 570.6425523363805,
      "latitude_deg": 2.705325523671108e-05,
      "longitude_deg": 128.32397055869703,
      "height_km": 574.4490251836357,
      "semi_major_axis_km": 6950.152207397341,
      "eccentricity": 0.0001975,
      "inclination_deg": 70.0006,
      "raan_deg": 286.0775,
      "arg_perigee_deg": 269.6914,
      "mean_anomaly_deg": 90.4019,
      "mean_motion_rev_day": 14.98343156
    }
  ]
}